{
  "type": "FeatureCollection",
  "features": [
    {
      "type": "Feature",
      "properties": {
        "norad_id": 43564,
        "name": "GSAT0221 (GALILEO 25)",
        "group": "galileo",
        "lat": 53.904662360925535,
        "lon": 48.60695507778526,
        "alt_km": 23232.57682041232,
        "timestamp": "2025-12-23T05:02:12.293896+00:00",
        "meta_object_name": "GSAT0221 (GALILEO 25)",
        "meta_object_id": "2018-060A",
        "meta_epoch": "2025-12-22T12:03:53.090784",
        "meta_mean_motion": 1.70475795,
        "meta_eccentricity": 0.00067289,
        "meta_inclination": 57.2257,
        "meta_ra_of_asc_node": 346.5541,
        "meta_arg_of_pericenter": 286.6131,
        "meta_mean_anomaly": 73.3207,
        "meta_ephemeris_type": 0,
        "meta_classification_type": "U",
        "meta_norad_cat_id": 43564,
        "meta_element_set_no": 999,
        "meta_rev_at_epoch": 4615,
        "meta_bstar": 0,
        "meta_mean_motion_dot": -6.4e-07,
        "meta_mean_motion_ddot": 0,
        "tle_line1": "1 43564U 18060A   25356.50269781 -.00000064  00000+0  00000+0 0  9995",
        "tle_line2": "2 43564  57.2257 346.5541 0006728 286.6131  73.3207  1.70475795 46153"
      },
      "geometry": {
        "type": "Point",
        "coordinates": [
          48.60695507778526,
          53.904662360925535
        ]
      }
    },
    {
      "type": "Feature",
      "properties": {
        "norad_id": 43565,
        "name": "GSAT0222 (GALILEO 26)",
        "group": "galileo",
        "lat": -47.11261805922524,
        "lon": -57.382578964411515,
        "alt_km": 23212.24006859305,
        "timestamp": "2025-12-23T05:02:12.293908+00:00",
        "meta_object_name": "GSAT0222 (GALILEO 26)",
        "meta_object_id": "2018-060B",
        "meta_epoch": "2025-12-22T03:15:04.306464",
        "meta_mean_motion": 1.70475514,
        "meta_eccentricity": 0.000605,
        "meta_inclination": 57.229,
        "meta_ra_of_asc_node": 346.567,
        "meta_arg_of_pericenter": 266.9186,
        "meta_mean_anomaly": 93.0201,
        "meta_ephemeris_type": 0,
        "meta_classification_type": "U",
        "meta_norad_cat_id": 43565,
        "meta_element_set_no": 999,
        "meta_rev_at_epoch": 4619,
        "meta_bstar": 0,
        "meta_mean_motion_dot": -6.5e-07,
        "meta_mean_motion_ddot": 0,
        "tle_line1": "1 43565U 18060B   25356.13546651 -.00000065  00000+0  00000+0 0  9990",
        "tle_line2": "2 43565  57.2290 346.5670 0006050 266.9186  93.0201  1.70475514 46199"
      },
      "geometry": {
        "type": "Point",
        "coordinates": [
          -57.382578964411515,
          -47.11261805922524
        ]
      }
    },
    {
      "type": "Feature",
      "properties": {
        "norad_id": 43566,
        "name": "GSAT0219 (GALILEO 23)",
        "group": "galileo",
        "lat": 13.7317401430722,
        "lon": 157.47102891160836,
        "alt_km": 23231.10866765464,
        "timestamp": "2025-12-23T05:02:12.293922+00:00",
        "meta_object_name": "GSAT0219 (GALILEO 23)",
        "meta_object_id": "2018-060C",
        "meta_epoch": "2025-12-22T08:33:30.157056",
        "meta_mean_motion": 1.70475755,
        "meta_eccentricity": 0.00058833,
        "meta_inclination": 57.2283,
        "meta_ra_of_asc_node": 346.5626,
        "meta_arg_of_pericenter": 291.1394,
        "meta_mean_anomaly": 68.8055,
        "meta_ephemeris_type": 0,
        "meta_classification_type": "U",
        "meta_norad_cat_id": 43566,
        "meta_element_set_no": 999,
        "meta_rev_at_epoch": 4617,
        "meta_bstar": 0,
        "meta_mean_motion_dot": -6.5e-07,
        "meta_mean_motion_ddot": 0,
        "tle_line1": "1 43566U 18060C   25356.35659904 -.00000065  00000+0  00000+0 0  9991",
        "tle_line2": "2 43566  57.2283 346.5626 0005883 291.1394  68.8055  1.70475755 46179"
      },
      "geometry": {
        "type": "Point",
        "coordinates": [
          157.47102891160836,
          13.7317401430722
        ]
      }
    },
    {
      "type": "Feature",
      "properties": {
        "norad_id": 43567,
        "name": "GSAT0220 (GALILEO 24)",
        "group": "galileo",
        "lat": 23.317334673039046,
        "lon": 2.6487865740477963,
        "alt_km": 23222.23365751981,
        "timestamp": "2025-12-23T05:02:12.293934+00:00",
        "meta_object_name": "GSAT0220 (GALILEO 24)",
        "meta_object_id": "2018-060D",
        "meta_epoch": "2025-12-19T15:28:13.770912",
        "meta_mean_motion": 1.70475932,
        "meta_eccentricity": 0.000607,
        "meta_inclination": 57.2288,
        "meta_ra_of_asc_node": 346.6359,
        "meta_arg_of_pericenter": 288.3471,
        "meta_mean_anomaly": 71.5983,
        "meta_ephemeris_type": 0,
        "meta_classification_type": "U",
        "meta_norad_cat_id": 43567,
        "meta_element_set_no": 999,
        "meta_rev_at_epoch": 4611,
        "meta_bstar": 0,
        "meta_mean_motion_dot": -7.2e-07,
        "meta_mean_motion_ddot": 0,
        "tle_line1": "1 43567U 18060D   25353.64460383 -.00000072  00000+0  00000+0 0  9990",
        "tle_line2": "2 43567  57.2288 346.6359 0006070 288.3471  71.5983  1.70475932 46114"
      },
      "geometry": {
        "type": "Point",
        "coordinates": [
          2.6487865740477963,
          23.317334673039046
        ]
      }
    },
    {
      "type": "Feature",
      "properties": {
        "norad_id": 49809,
        "name": "GSAT0223 (GALILEO 27)",
        "group": "galileo",
        "lat": 47.458636242214325,
        "lon": 121.80924666501501,
        "alt_km": 23225.95437508552,
        "timestamp": "2025-12-23T05:02:12.293945+00:00",
        "meta_object_name": "GSAT0223 (GALILEO 27)",
        "meta_object_id": "2021-116A",
        "meta_epoch": "2025-12-22T17:26:14.878176",
        "meta_mean_motion": 1.70475871,
        "meta_eccentricity": 0.000441,
        "meta_inclination": 57.2174,
        "meta_ra_of_asc_node": 346.4438,
        "meta_arg_of_pericenter": 255.815,
        "meta_mean_anomaly": 286.3499,
        "meta_ephemeris_type": 0,
        "meta_classification_type": "U",
        "meta_norad_cat_id": 49809,
        "meta_element_set_no": 999,
        "meta_rev_at_epoch": 2517,
        "meta_bstar": 0,
        "meta_mean_motion_dot": -6.4e-07,
        "meta_mean_motion_ddot": 0,
        "tle_line1": "1 49809U 21116A   25356.72656109 -.00000064  00000+0  00000+0 0  9997",
        "tle_line2": "2 49809  57.2174 346.4438 0004410 255.8150 286.3499  1.70475871 25171"
      },
      "geometry": {
        "type": "Point",
        "coordinates": [
          121.80924666501501,
          47.458636242214325
        ]
      }
    },
    {
      "type": "Feature",
      "properties": {
        "norad_id": 49810,
        "name": "GSAT0224 (GALILEO 28)",
        "group": "galileo",
        "lat": -41.05663809347727,
        "lon": -159.43587718512302,
        "alt_km": 23217.081139399852,
        "timestamp": "2025-12-23T05:02:12.293956+00:00",
        "meta_object_name": "GSAT0224 (GALILEO 28)",
        "meta_object_id": "2021-116B",
        "meta_epoch": "2025-12-20T04:43:34.979232",
        "meta_mean_motion": 1.70476091,
        "meta_eccentricity": 0.0003747,
        "meta_inclination": 57.2188,
        "meta_ra_of_asc_node": 346.5104,
        "meta_arg_of_pericenter": 259.7047,
        "meta_mean_anomaly": 282.5653,
        "meta_ephemeris_type": 0,
        "meta_classification_type": "U",
        "meta_norad_cat_id": 49810,
        "meta_element_set_no": 999,
        "meta_rev_at_epoch": 2515,
        "meta_bstar": 0,
        "meta_mean_motion_dot": -7e-07,
        "meta_mean_motion_ddot": 0,
        "tle_line1": "1 49810U 21116B   25354.19693263 -.00000070  00000+0  00000+0 0  9997",
        "tle_line2": "2 49810  57.2188 346.5104 0003747 259.7047 282.5653  1.70476091 25152"
      },
      "geometry": {
        "type": "Point",
        "coordinates": [
          -159.43587718512302,
          -41.05663809347727
        ]
      }
    },
    {
      "type": "Feature",
      "properties": {
        "norad_id": 59598,
        "name": "GSAT0225 (GALILEO 29)",
        "group": "galileo",
        "lat": -34.676094921310714,
        "lon": -45.0589808306627,
        "alt_km": 23220.98593015488,
        "timestamp": "2025-12-23T05:02:12.293989+00:00",
        "meta_object_name": "GSAT0225 (GALILEO 29)",
        "meta_object_id": "2024-079A",
        "meta_epoch": "2025-12-22T20:21:50.564160",
        "meta_mean_motion": 1.70474954,
        "meta_eccentricity": 0.00022188,
        "meta_inclination": 55.0069,
        "meta_ra_of_asc_node": 106.0132,
        "meta_arg_of_pericenter": 188.6953,
        "meta_mean_anomaly": 173.4251,
        "meta_ephemeris_type": 0,
        "meta_classification_type": "U",
        "meta_norad_cat_id": 59598,
        "meta_element_set_no": 999,
        "meta_rev_at_epoch": 1031,
        "meta_bstar": 0,
        "meta_mean_motion_dot": 8e-08,
        "meta_mean_motion_ddot": 0,
        "tle_line1": "1 59598U 24079A   25356.84850190  .00000008  00000+0  00000+0 0  9990",
        "tle_line2": "2 59598  55.0069 106.0132 0002218 188.6953 173.4251  1.70474954 10318"
      },
      "geometry": {
        "type": "Point",
        "coordinates": [
          -45.0589808306627,
          -34.676094921310714
        ]
      }
    }
  ]
}